{
  "type": "FeatureCollection",
  "features": [
    {
      "type": "Feature",
      "properties": {
        "norad_id": 65943,
        "name": "E-KAGAKU-1",
        "group": "stations",
        "lat": 48.975071285033174,
        "lon": -103.83140969872255,
        "alt_km": 386.8968144408518,
        "timestamp": "2025-12-02T15:49:05.967253+00:00",
        "meta_object_name": "E-KAGAKU-1",
        "meta_object_id": "1998-067XQ",
        "meta_epoch": "2025-12-01T01:00:17.648352",
        "meta_mean_motion": 15.57460747,
        "meta_eccentricity": 0.00037303,
        "meta_inclination": 51.6301,
        "meta_ra_of_asc_node": 198.6831,
        "meta_arg_of_pericenter": 140.2253,
        "meta_mean_anomaly": 219.9013,
        "meta_ephemeris_type": 0,
        "meta_classification_type": "U",
        "meta_norad_cat_id": 65943,
        "meta_element_set_no": 999,
        "meta_rev_at_epoch": 803,
        "meta_bstar": 0.0008573363,
        "meta_mean_motion_dot": 0.00064224,
        "meta_mean_motion_ddot": 0,
        "tle_line1": "1 65943U 98067XQ  25335.04187093  .00064224  00000+0  85734-3 0  9994",
        "tle_line2": "2 65943  51.6301 198.6831 0003730 140.2253 219.9013 15.57460747  8033"
      },
      "geometry": {
        "type": "Point",
        "coordinates": [
          -103.83140969872255,
          48.975071285033174
        ]
      }
    },
    {
      "type": "Feature",
      "properties": {
        "norad_id": 66052,
        "name": "HRC MONOBLOCK CAMERA",
        "group": "stations",
        "lat": -40.88849397035309,
        "lon": 55.05104647451605,
        "alt_km": 411.92487290386,
        "timestamp": "2025-12-02T15:49:05.967264+00:00",
        "meta_object_name": "HRC MONOBLOCK CAMERA",
        "meta_object_id": "1998-067XR",
        "meta_epoch": "2025-12-02T03:59:40.828128",
        "meta_mean_motion": 15.53119225,
        "meta_eccentricity": 0.00044868,
        "meta_inclination": 51.6294,
        "meta_ra_of_asc_node": 194.1864,
        "meta_arg_of_pericenter": 141.6415,
        "meta_mean_anomaly": 218.4895,
        "meta_ephemeris_type": 0,
        "meta_classification_type": "U",
        "meta_norad_cat_id": 66052,
        "meta_element_set_no": 999,
        "meta_rev_at_epoch": 719,
        "meta_bstar": 0.00059319261,
        "meta_mean_motion_dot": 0.00037569,
        "meta_mean_motion_ddot": 0,
        "tle_line1": "1 66052U 98067XR  25336.16644477  .00037569  00000+0  59319-3 0  9996",
        "tle_line2": "2 66052  51.6294 194.1864 0004486 141.6415 218.4895 15.53119225  7193"
      },
      "geometry": {
        "type": "Point",
        "coordinates": [
          55.05104647451605,
          -40.88849397035309
        ]
      }
    },
    {
      "type": "Feature",
      "properties": {
        "norad_id": 66174,
        "name": "HTV-X1",
        "group": "stations",
        "lat": -49.61471118565896,
        "lon": 123.73067414058876,
        "alt_km": 423.3871386575729,
        "timestamp": "2025-12-02T15:49:05.967274+00:00",
        "meta_object_name": "HTV-X1",
        "meta_object_id": "2025-241A",
        "meta_epoch": "2025-12-02T02:12:50.598720",
        "meta_mean_motion": 15.49237019,
        "meta_eccentricity": 0.00036389,
        "meta_inclination": 51.6314,
        "meta_ra_of_asc_node": 195.1903,
        "meta_arg_of_pericenter": 193.8265,
        "meta_mean_anomaly": 166.2625,
        "meta_ephemeris_type": 0,
        "meta_classification_type": "U",
        "meta_norad_cat_id": 66174,
        "meta_element_set_no": 999,
        "meta_rev_at_epoch": 51,
        "meta_bstar": 0.00017380747,
        "meta_mean_motion_dot": 9.217e-05,
        "meta_mean_motion_ddot": 0,
        "tle_line1": "1 66174U 25241A   25336.09225230  .00009217  00000+0  17381-3 0  9991",
        "tle_line2": "2 66174  51.6314 195.1903 0003638 193.8265 166.2625 15.49237019   513"
      },
      "geometry": {
        "type": "Point",
        "coordinates": [
          123.73067414058876,
          -49.61471118565896
        ]
      }
    },
    {
      "type": "Feature",
      "properties": {
        "norad_id": 66515,
        "name": "SZ-21 MODULE",
        "group": "stations",
        "lat": 9.532218750257472,
        "lon": -113.4541276406665,
        "alt_km": 377.79484186542595,
        "timestamp": "2025-12-02T15:49:05.967295+00:00",
        "meta_object_name": "SZ-21 MODULE",
        "meta_object_id": "2025-246C",
        "meta_epoch": "2025-12-01T23:45:55.979136",
        "meta_mean_motion": 15.61701927,
        "meta_eccentricity": 0.00056718,
        "meta_inclination": 41.4766,
        "meta_ra_of_asc_node": 81.5812,
        "meta_arg_of_pericenter": 196.2945,
        "meta_mean_anomaly": 163.7713,
        "meta_ephemeris_type": 0,
        "meta_classification_type": "U",
        "meta_norad_cat_id": 66515,
        "meta_element_set_no": 999,
        "meta_rev_at_epoch": 276,
        "meta_bstar": 0.00033718467,
        "meta_mean_motion_dot": 0.00029734,
        "meta_mean_motion_ddot": 0,
        "tle_line1": "1 66515U 25246C   25335.99023124  .00029734  00000+0  33718-3 0  9999",
        "tle_line2": "2 66515  41.4766  81.5812 0005671 196.2945 163.7713 15.61701927  2765"
      },
      "geometry": {
        "type": "Point",
        "coordinates": [
          -113.4541276406665,
          9.532218750257472
        ]
      }
    },
    {
      "type": "Feature",
      "properties": {
        "norad_id": 66645,
        "name": "SHENZHOU-22",
        "group": "stations",
        "lat": 10.449536993257134,
        "lon": 89.93140747044401,
        "alt_km": 386.6708120445446,
        "timestamp": "2025-12-02T15:49:05.967316+00:00",
        "meta_object_name": "SHENZHOU-22",
        "meta_object_id": "2025-272A",
        "meta_epoch": "2025-12-02T06:31:22.828800",
        "meta_mean_motion": 15.58517706,
        "meta_eccentricity": 0.00102589,
        "meta_inclination": 41.4672,
        "meta_ra_of_asc_node": 80.2264,
        "meta_arg_of_pericenter": 312.0297,
        "meta_mean_anomaly": 47.9667,
        "meta_ephemeris_type": 0,
        "meta_classification_type": "U",
        "meta_norad_cat_id": 66645,
        "meta_element_set_no": 999,
        "meta_rev_at_epoch": 26240,
        "meta_bstar": 0.00032073258,
        "meta_mean_motion_dot": 0.00025017,
        "meta_mean_motion_ddot": 0,
        "tle_line1": "1 66645U 25272A   25336.27179200  .00025017  00000+0  32073-3 0  9994",
        "tle_line2": "2 66645  41.4672  80.2264 0010258 312.0297  47.9667 15.58517706262403"
      },
      "geometry": {
        "type": "Point",
        "coordinates": [
          89.93140747044401,
          10.449536993257134
        ]
      }
    },
    {
      "type": "Feature",
      "properties": {
        "norad_id": 66646,
        "name": "CZ-2F R/B",
        "group": "stations",
        "lat": 13.377102249053653,
        "lon": -120.96031333322995,
        "alt_km": 186.96376120943933,
        "timestamp": "2025-12-02T15:49:05.967328+00:00",
        "meta_object_name": "CZ-2F R/B",
        "meta_object_id": "2025-272B",
        "meta_epoch": "2025-11-26T11:17:54.506400",
        "meta_mean_motion": 16.01945612,
        "meta_eccentricity": 0.01210796,
        "meta_inclination": 41.4431,
        "meta_ra_of_asc_node": 114.9009,
        "meta_arg_of_pericenter": 133.7676,
        "meta_mean_anomaly": 227.3272,
        "meta_ephemeris_type": 0,
        "meta_classification_type": "U",
        "meta_norad_cat_id": 66646,
        "meta_element_set_no": 999,
        "meta_rev_at_epoch": 21,
        "meta_bstar": 0.00029319366,
        "meta_mean_motion_dot": 0.00449059,
        "meta_mean_motion_ddot": 7.567612e-06,
        "tle_line1": "1 66646U 25272B   25330.47076975  .00449059  75676-5  29319-3 0  9998",
        "tle_line2": "2 66646  41.4431 114.9009 0121079 133.7676 227.3272 16.01945612   217"
      },
      "geometry": {
        "type": "Point",
        "coordinates": [
          -120.96031333322995,
          13.377102249053653
        ]
      }
    },
    {
      "type": "Feature",
      "properties": {
        "norad_id": 66664,
        "name": "SOYUZ-MS 28",
        "group": "stations",
        "lat": -49.61471000820858,
        "lon": 123.73068024129836,
        "alt_km": 423.3871388016123,
        "timestamp": "2025-12-02T15:49:05.967338+00:00",
        "meta_object_name": "SOYUZ-MS 28",
        "meta_object_id": "2025-275A",
        "meta_epoch": "2025-12-02T02:12:50.598720",
        "meta_mean_motion": 15.49237019,
        "meta_eccentricity": 0.00036389,
        "meta_inclination": 51.6314,
        "meta_ra_of_asc_node": 195.1903,
        "meta_arg_of_pericenter": 193.8265,
        "meta_mean_anomaly": 166.2625,
        "meta_ephemeris_type": 0,
        "meta_classification_type": "U",
        "meta_norad_cat_id": 66664,
        "meta_element_set_no": 999,
        "meta_rev_at_epoch": 79,
        "meta_bstar": 0.00017380747,
        "meta_mean_motion_dot": 9.217e-05,
        "meta_mean_motion_ddot": 0,
        "tle_line1": "1 66664U 25275A   25336.09225230  .00009217  00000+0  17381-3 0  9992",
        "tle_line2": "2 66664  51.6314 195.1903 0003638 193.8265 166.2625 15.49237019   797"
      },
      "geometry": {
        "type": "Point",
        "coordinates": [
          123.73068024129836,
          -49.61471000820858
        ]
      }
    }
  ]
}